{
  "54797": {
    "noradId": "54797",
    "tle": [
      "1 54797C 22175AR  25316.55951389 -.00049348  00000+0 -30955-2 0  3167",
      "2 54797  53.2156 209.7806 0001425  86.4890  88.8436 15.08875608    11"
    ]
  },
  "54798": {
    "noradId": "54798",
    "tle": [
      "1 54798C 22175AS  25316.55395833 -.00012322  00000+0 -77226-3 0  3169",
      "2 54798  53.2150 184.7294 0001266  86.7757 141.0903 15.08871058    13"
    ]
  },
  "54799": {
    "noradId": "54799",
    "tle": [
      "1 54799C 22175AT  25316.55604167 -.00032222  00000+0 -20179-2 0  3168",
      "2 54799  53.2150 184.9172 0001401  95.0358  44.0236 15.08917471    13"
    ]
  },
  "54800": {
    "noradId": "54800",
    "tle": [
      "1 54800C 22175AU  25316.55604167  .00036810  00000+0  23104-2 0  3167",
      "2 54800  53.2150 199.7248 0001732  92.6558 104.0313 15.08767822    12"
    ]
  },
  "54801": {
    "noradId": "54801",
    "tle": [
      "1 54801C 22175AV  25316.55673611 -.00040041  00000+0 -25115-2 0  3165",
      "2 54801  53.2145 209.5121 0001291  85.2956 220.3299 15.08868315    11"
    ]
  },
  "54802": {
    "noradId": "54802",
    "tle": [
      "1 54802C 22175AW  25316.55534722 -.00040339  00000+0 -25292-2 0  3161",
      "2 54802  53.2146 154.4141 0001378  91.4641 269.1419 15.08884423    12"
    ]
  },
  "54803": {
    "noradId": "54803",
    "tle": [
      "1 54803C 22175AX  25316.55534722 -.00045441  00000+0 -28475-2 0  3167",
      "2 54803  53.2143 209.6224 0001341  89.2086 148.7624 15.08909045    11"
    ]
  },
  "54804": {
    "noradId": "54804",
    "tle": [
      "1 54804C 22175AY  25316.55743056  .00028547  00000+0  17927-2 0  3166",
      "2 54804  53.2153 194.4661 0001330 109.9666 241.9941 15.08757822    13"
    ]
  },
  "54805": {
    "noradId": "54805",
    "tle": [
      "1 54805C 22175AZ  25316.55395833 -.00059248  00000+0 -37146-2 0  3162",
      "2 54805  53.2147 194.6742 0001322  87.2566 145.6550 15.08904203    10"
    ]
  },
  "54806": {
    "noradId": "54806",
    "tle": [
      "1 54806C 22175BA  25316.55673611 -.00024422  00000+0 -15303-2 0  3163",
      "2 54806  53.2151 194.5425 0001128  90.3700 217.7106 15.08889303    13"
    ]
  },
  "54807": {
    "noradId": "54807",
    "tle": [
      "1 54807C 22175BB  25316.55534722 -.00021936  00000+0 -13754-2 0  3168",
      "2 54807  53.2151 194.5906 0001141  91.0808 189.4204 15.08864284    15"
    ]
  },
  "54808": {
    "noradId": "54808",
    "tle": [
      "1 54808C 22175BC  25316.55256944 -.00001830  00000+0 -11473-3 0  3164",
      "2 54808  53.2145 180.1404 0001457  87.4800 320.0737 15.08845022    17"
    ]
  },
  "54809": {
    "noradId": "54809",
    "tle": [
      "1 54809C 22175BD  25316.55743056  .00016001  00000+0  10038-2 0  3169",
      "2 54809  53.2154 194.5022 0001484  96.9421 234.9385 15.08808210    17"
    ]
  },
  "54810": {
    "noradId": "54810",
    "tle": [
      "1 54810C 22175BE  25316.55395833 -.00022706  00000+0 -14236-2 0  3162",
      "2 54810  53.2146 189.7354 0001419  85.7486 114.5936 15.08868587    17"
    ]
  },
  "54811": {
    "noradId": "54811",
    "tle": [
      "1 54811C 22175BF  25316.55534722 -.00001302  00000+0 -81621-4 0  3168",
      "2 54811  53.2149 190.0011 0001407  90.2012 332.4096 15.08846613    13"
    ]
  },
  "54820": {
    "noradId": "54820",
    "tle": [
      "1 54820C 22177A   25316.55465278  .00015424  00000+0  11379-2 0  3168",
      "2 54820  43.0038  50.0839 0001110 270.8339  29.7503 15.02528525    11"
    ]
  },
  "54821": {
    "noradId": "54821",
    "tle": [
      "1 54821C 22177B   25316.55465278 -.00010412  00000+0 -76837-3 0  3164",
      "2 54821  43.0039  49.9311 0001118 265.8203 100.8762 15.02541985    10"
    ]
  },
  "54822": {
    "noradId": "54822",
    "tle": [
      "1 54822C 22177C   25316.55951389  .00002486  00000+0  18342-3 0  3165",
      "2 54822  43.0039  49.8449 0001261 272.8616 144.2098 15.02535555    17"
    ]
  },
  "54823": {
    "noradId": "54823",
    "tle": [
      "1 54823C 22177D   25316.55395833 -.00010052  00000+0 -74157-3 0  3168",
      "2 54823  43.0035  50.0463 0001114 275.4467  39.3595 15.02553420    11"
    ]
  },
  "54824": {
    "noradId": "54824",
    "tle": [
      "1 54824C 22177E   25316.55465278  .00025160  00000+0  18557-2 0  3165",
      "2 54824  43.0040  49.9996 0001324 272.3646  64.2476 15.02526756    11"
    ]
  },
  "54826": {
    "noradId": "54826",
    "tle": [
      "1 54826C 22177G   25316.55812500 -.00051785  00000+0 -38201-2 0  3163",
      "2 54826  43.0042  49.8679 0001285 260.8473 142.6415 15.02596764    18"
    ]
  },
  "54827": {
    "noradId": "54827",
    "tle": [
      "1 54827C 22177H   25316.55673611  .00001741  00000+0  12844-3 0  3163",
      "2 54827  43.0034  49.7706 0001195 266.4464 171.6264 15.02535503    10"
    ]
  },
  "54828": {
    "noradId": "54828",
    "tle": [
      "1 54828C 22177J   25316.55881944  .00030301  00000+0  22372-2 0  3164",
      "2 54828  43.0037  49.7179 0000993 258.9716 208.4054 15.02482175    11"
    ]
  },
  "54830": {
    "noradId": "54830",
    "tle": [
      "1 54830C 22177L   25316.55534722 -.00000974  00000+0 -71899-4 0  3161",
      "2 54830  43.0040  49.6620 0001211 268.5771 210.0794 15.02534947    15"
    ]
  },
  "54831": {
    "noradId": "54831",
    "tle": [
      "1 54831C 22177M   25316.55951389  .00008746  00000+0  64525-3 0  3164",
      "2 54831  43.0045  49.8764 0001418 267.4398 131.5949 15.02529517    10"
    ]
  },
  "54833": {
    "noradId": "54833",
    "tle": [
      "1 54833C 22177P   25316.55256944 -.00002975  00000+0 -21949-3 0  3164",
      "2 54833  43.0037  49.7651 0001425 265.2358 162.3307 15.02537662    17"
    ]
  },
  "54834": {
    "noradId": "54834",
    "tle": [
      "1 54834C 22177Q   25316.55465278 -.00054312  00000+0 -40061-2 0  3164",
      "2 54834  43.0033  49.6509 0001268 268.8122 212.0360 15.02602376    15"
    ]
  },
  "54835": {
    "noradId": "54835",
    "tle": [
      "1 54835C 22177R   25316.55673611 -.00000865  00000+0 -63809-4 0  3168",
      "2 54835  43.0040  49.7016 0001325 268.1083 200.0222 15.02537861    11"
    ]
  },
  "54836": {
    "noradId": "54836",
    "tle": [
      "1 54836C 22177S   25316.55326389 -.00017874  00000+0 -13191-2 0  3161",
      "2 54836  43.0038  49.6134 0001387 260.4669 230.9287 15.02547351    10"
    ]
  },
  "54837": {
    "noradId": "54837",
    "tle": [
      "1 54837C 22177T   25316.55395833 -.00001353  00000+0 -99827-4 0  3169",
      "2 54837  43.0039  49.6275 0001335 268.8142 220.3406 15.02536182    15"
    ]
  },
  "54838": {
    "noradId": "54838",
    "tle": [
      "1 54838C 22177U   25316.55534722 -.00000596  00000+0 -43957-4 0  3163",
      "2 54838  43.0039  49.5197 0001267 265.2410 273.5185 15.02532390    12"
    ]
  },
  "54840": {
    "noradId": "54840",
    "tle": [
      "1 54840C 22177W   25316.55881944  .00002214  00000+0  16334-3 0  3162",
      "2 54840  43.0033  49.3835 0001251 269.3073 336.3400 15.02533876    17"
    ]
  },
  "54841": {
    "noradId": "54841",
    "tle": [
      "1 54841C 22177X   25316.56090278 -.00065360  00000+0 -48201-2 0  3166",
      "2 54841  43.0034  49.5312 0001284 256.3996 294.3636 15.02620509    11"
    ]
  },
  "54842": {
    "noradId": "54842",
    "tle": [
      "1 54842C 22177Y   25316.55673611  .00016687  00000+0  12309-2 0  3160",
      "2 54842  43.0037  49.3121 0001149 276.0244 354.4068 15.02530800    17"
    ]
  },
  "54843": {
    "noradId": "54843",
    "tle": [
      "1 54843C 22177Z   25316.55604167  .00015284  00000+0  11275-2 0  3164",
      "2 54843  43.0037  49.4739 0001289 274.9575 285.5986 15.02530158    12"
    ]
  },
  "54844": {
    "noradId": "54844",
    "tle": [
      "1 54844C 22177AA  25316.55951389 -.00070334  00000+0 -51883-2 0  3164",
      "2 54844  43.0036  49.2176 0001478 271.6456  37.8383 15.02615489    17"
    ]
  },
  "54845": {
    "noradId": "54845",
    "tle": [
      "1 54845C 22177AB  25316.55465278 -.00099886  00000+0 -73719-2 0  3167",
      "2 54845  43.0032  49.3620 0001321 267.3490 333.7660 15.02626334    13"
    ]
  },
  "54846": {
    "noradId": "54846",
    "tle": [
      "1 54846C 22177AC  25316.55743056 -.00061801  00000+0 -45582-2 0  3164",
      "2 54846  43.0035  49.2652 0001287 257.2769  34.8994 15.02612419    17"
    ]
  },
  "54847": {
    "noradId": "54847",
    "tle": [
      "1 54847C 22177AD  25316.55743056 -.00073888  00000+0 -54513-2 0  3167",
      "2 54847  43.0045  23.6054 0001366 258.2756 246.8558 15.02613555    19"
    ]
  },
  "54848": {
    "noradId": "54848",
    "tle": [
      "1 54848C 22177AE  25316.55951389 -.00071921  00000+0 -53055-2 0  3164",
      "2 54848  43.0037  37.1064 0001237 259.6738  41.7443 15.02616843    12"
    ]
  },
  "54850": {
    "noradId": "54850",
    "tle": [
      "1 54850C 22177AG  25316.55326389  .00009294  00000+0  68567-3 0  3160",
      "2 54850  43.0036  37.0803 0001201 276.1675  15.5122 15.02533402    11"
    ]
  },
  "54851": {
    "noradId": "54851",
    "tle": [
      "1 54851C 22177AH  25316.56020833 -.00037941  00000+0 -27990-2 0  3163",
      "2 54851  43.0043  37.0909 0001321 266.0348  45.1830 15.02581012    10"
    ]
  },
  "54852": {
    "noradId": "54852",
    "tle": [
      "1 54852C 22177AJ  25316.55256944 -.00071449  00000+0 -52758-2 0  3168",
      "2 54852  43.0035  36.9976 0001323 260.0875  63.9964 15.02579099    13"
    ]
  },
  "54853": {
    "noradId": "54853",
    "tle": [
      "1 54853C 22177AK  25316.55465278 -.00070513  00000+0 -52026-2 0  3160",
      "2 54853  43.0041  37.0347 0001368 262.1304  55.0797 15.02607941    18"
    ]
  },
  "54855": {
    "noradId": "54855",
    "tle": [
      "1 54855C 22177AM  25316.55812500 -.00036015  00000+0 -26576-2 0  3166",
      "2 54855  43.0043  36.9298 0001319 264.3489 107.7324 15.02569195    18"
    ]
  }
}